NORAD_CAT_ID,OBJECT_NAME,OBJECT_TYPE,EPOCH,MEAN_MOTION,ECCENTRICITY,INCLINATION,RA_OF_ASC_NODE,ARG_OF_PERICENTER,MEAN_ANOMALY,BSTAR,MEAN_MOTION_DOT,MEAN_MOTION_DDOT,TLE_LINE0,TLE_LINE1,TLE_LINE2,SEMIMAJOR_AXIS,PERIOD,APOGEE,PERIGEE,DECAYED
49447.0,STARLINK-3115,PAYLOAD,2022-01-24 22:00:00,15.43372068,0.0001465,53.2172,137.2903,50.1796,243.4568,-0.015772,-0.00665176,0.0,0 STARLINK-3115,1 49447U 21104AR  22024.91667824 -.00665176  00000-0 -15772-1 0  9995,2 49447  53.2172 137.2903 0001465  50.1796 243.4568 15.43372068  3676,6814.303000000001,93.302,437.166,435.169,0.0
49447.0,STARLINK-3115,PAYLOAD,2022-01-25 14:00:01,15.4243918,0.0001887,53.2173,134.1381,30.7168,7.9611,-0.0162819999999999,-0.00665394,0.0,0 STARLINK-3115,1 49447U 21104AR  22025.58334491 -.00665394  00000-0 -16282-1 0  9999,2 49447  53.2173 134.1381 0001887  30.7168   7.9611 15.42439180  3656,6817.05,93.359,440.201,437.629,0.0
49447.0,STARLINK-3115,PAYLOAD,2022-01-25 22:00:00,15.41970542,0.0001561999999999,53.2172,132.5628,41.0045,49.3546,-0.016436,-0.00661418,0.0,0 STARLINK-3115,1 49447U 21104AR  22025.91667824 -.00661418  00000-0 -16436-1 0  9999,2 49447  53.2172 132.5628 0001562  41.0045  49.3546 15.41970542  3692,6818.431,93.387,441.361,439.231,0.0
49447.0,STARLINK-3115,PAYLOAD,2022-01-26 06:00:00,15.4137864,0.0001692,53.2168,130.9885,36.2623,105.2879,-0.012425,-0.00494544,0.0,0 STARLINK-3115,1 49447U 21104AR  22026.25001157 -.00494544  00000-0 -12425-1 0  9996,2 49447  53.2168 130.9885 0001692  36.2623 105.2879 15.41378640 12845,6820.177,93.423,443.196,440.888,0.0
49447.0,STARLINK-3115,PAYLOAD,2022-01-26 14:00:01,15.41037025,0.0002035,53.2172,129.4171,34.3233,157.7138,-0.0169449999999999,-0.00660999,0.0,0 STARLINK-3115,1 49447U 21104AR  22026.58334491 -.00660999  00000-0 -16945-1 0  9992,2 49447  53.2172 129.4171 0002035  34.3233 157.7138 15.41037025 12893,6821.184,93.444,444.43800000000016,441.661,0.0
49447.0,STARLINK-3115,PAYLOAD,2022-01-26 20:57:12,15.41173516,8.840000000000001e-05,53.2176,128.0572,11.4144,348.6882,-0.0080001,-0.00323404,0.0,0 STARLINK-3115,1 49447U 21104AR  22026.87306057 -.00323404  00000-0 -80001-2 0  9993,2 49447  53.2176 128.0572 0000884  11.4144 348.6882 15.41173516 11863,6820.781999999997,93.435,443.25,442.044,0.0
49447.0,STARLINK-3115,PAYLOAD,2022-01-27 14:05:07,15.40176714,0.0003353,53.2179,124.6951,22.0369,338.0780000000001,-0.0081669,-0.00319672,0.0,0 STARLINK-3115,1 49447U 21104AR  22027.58688857 -.00319672  00000-0 -81669-2 0  9996,2 49447  53.2179 124.6951 0003353  22.0369 338.0780 15.40176714 11974,6823.724,93.496,447.877,443.301,0.0
49447.0,STARLINK-3115,PAYLOAD,2022-01-27 20:19:04,15.39788147,0.0002064,53.2176,123.4723,36.4366,323.678,-0.0085772,-0.00330871,0.0,0 STARLINK-3115,1 49447U 21104AR  22027.84658359 -.00330871  00000-0 -85772-2 0  9992,2 49447  53.2176 123.4723 0002064  36.4366 323.6780 15.39788147 12012,6824.871999999999,93.519,448.146,445.329,0.0
49447.0,STARLINK-3115,PAYLOAD,2022-01-27 22:00:00,15.3917185,0.0001526,53.2174,123.1373,41.1429,347.5233,-0.01808,-0.00662734,0.0,0 STARLINK-3115,1 49447U 21104AR  22027.91667824 -.00662734  00000-0 -18080-1 0  9990,2 49447  53.2174 123.1373 0001526  41.1429 347.5233 15.39171850 13097,6826.694,93.557,449.601,447.517,0.0
49447.0,STARLINK-3115,PAYLOAD,2022-01-28 12:00:00,15.38355447,0.0001927,53.2175,120.3964,29.8855,351.9846,-0.018568,-0.00662649,0.0,0 STARLINK-3115,1 49447U 21104AR  22028.50001157 -.00662649  00000-0 -18568-1 0  9993,2 49447  53.2175 120.3964 0001927  29.8855 351.9846 15.38355447  3659,6829.109,93.606,452.29,449.658,0.0
49447.0,STARLINK-3115,PAYLOAD,2022-01-28 22:00:00,15.37689847,0.0001909,53.217,118.4407,33.3485,136.9433,-0.015486,-0.00542247,0.0,0 STARLINK-3115,1 49447U 21104AR  22028.91667824 -.00542247  00000-0 -15486-1 0  9994,2 49447  53.2170 118.4407 0001909  33.3485 136.9433 15.37689847  3648,6831.08,93.647,454.249,451.641,0.0
49447.0,STARLINK-3115,PAYLOAD,2022-01-29 06:00:00,15.37305038,0.0001898,53.2175,116.8752,37.8545,178.4706,-0.019144,-0.00660311,0.0,0 STARLINK-3115,1 49447U 21104AR  22029.25001157 -.00660311  00000-0 -19144-1 0  9991,2 49447  53.2175 116.8752 0001898  37.8545 178.4706 15.37305038 13306,6832.219,93.67,455.381,452.788,0.0
49447.0,STARLINK-3115,PAYLOAD,2022-01-29 14:00:01,15.36838148,0.0001998,53.2175,115.3145,34.9476,226.8899,-0.019451,-0.00660768,0.0,0 STARLINK-3115,1 49447U 21104AR  22029.58334491 -.00660768  00000-0 -19451-1 0  9994,2 49447  53.2175 115.3145 0001998  34.9476 226.8899 15.36838148  3670,6833.603,93.699,456.833,454.103,0.0
49447.0,STARLINK-3115,PAYLOAD,2022-01-29 22:00:00,15.36373533,0.0001667,53.2174,113.7518,40.1058,266.6844,-0.01987,-0.00664577,0.0,0 STARLINK-3115,1 49447U 21104AR  22029.91667824 -.00664577  00000-0 -19870-1 0  9997,2 49447  53.2174 113.7518 0001667  40.1058 266.6844 15.36373533  3677,6834.981,93.727,457.985,455.706,0.0
49447.0,STARLINK-3115,PAYLOAD,2022-01-30 14:00:01,15.35439593,0.0001986,53.2175,110.6336,28.7243,6.2883,-0.020427,-0.00663072,0.0,0 STARLINK-3115,1 49447U 21104AR  22030.58334491 -.00663072  00000-0 -20427-1 0  9992,2 49447  53.2175 110.6336 0001986  28.7243   6.2883 15.35439593 13506,6837.752,93.784,460.975,458.259,0.0
49447.0,STARLINK-3115,PAYLOAD,2022-01-30 22:00:00,15.34972098,0.0001652,53.2174,109.0742,37.983,40.3012,-0.020675,-0.00661209,0.0,0 STARLINK-3115,1 49447U 21104AR  22030.91667824 -.00661209  00000-0 -20675-1 0  9993,2 49447  53.2174 109.0742 0001652  37.9830  40.3012 15.34972098  3662,6839.14,93.813,462.135,459.876,0.0
49447.0,STARLINK-3115,PAYLOAD,2022-01-31 14:00:01,15.34037416,0.0001989,53.2174,105.9625,35.6479,127.5591,-0.021209,-0.0065855,0.0,0 STARLINK-3115,1 49447U 21104AR  22031.58335648 -.00658550  00000-0 -21209-1 0  9992,2 49447  53.2174 105.9625 0001989  35.6479 127.5591 15.34037416 13661,6841.918000000002,93.87,465.144,462.422,0.0
49447.0,STARLINK-3115,PAYLOAD,2022-01-31 22:00:01,15.3357328,0.0001733,53.2175,104.4062,43.872,160.9236,-0.021659,-0.00662337,0.0,0 STARLINK-3115,1 49447U 21104AR  22031.91668981 -.00662337  00000-0 -21659-1 0  9995,2 49447  53.2175 104.4062 0001733  43.8720 160.9236 15.33573280  3667,6843.299,93.898,466.349,463.978,0.0
49447.0,STARLINK-3115,PAYLOAD,2022-02-01 14:00:01,15.32555298,0.0001679,53.2175,101.3026,48.1066,238.2269,-0.018211,-0.00540808,0.0,0 STARLINK-3115,1 49447U 21104AR  22032.58335648 -.00540808  00000-0 -18211-1 0  9998,2 49447  53.2175 101.3026 0001679  48.1066 238.2269 15.32555298 13814,6846.329000000002,93.961,469.343,467.044,0.0
49447.0,STARLINK-3115,PAYLOAD,2022-02-01 22:00:00,15.3217376,0.0001539,53.2175,99.7485,43.9167,282.2171,-0.022665,-0.00662989,0.0,0 STARLINK-3115,1 49447U 21104AR  22032.91667824 -.00662989  00000-0 -22665-1 0  9992,2 49447  53.2175  99.7485 0001539  43.9167 282.2171 15.32173760 13869,6847.465,93.984,470.384,468.276,0.0
49447.0,STARLINK-3115,PAYLOAD,2022-02-02 14:00:01,15.31237893,0.0001856,53.2175,96.6505,32.5722,11.6932,-0.023174,-0.00658602,0.0,0 STARLINK-3115,1 49447U 21104AR  22033.58334491 -.00658602  00000-0 -23174-1 0  9990,2 49447  53.2175  96.6505 0001856  32.5722  11.6932 15.31237893  3664,6850.255,94.042,473.391,470.848,0.0
49447.0,STARLINK-3115,PAYLOAD,2022-02-02 22:00:00,15.30771888,0.0001703,53.2176,95.1006,36.3657,46.1252,-0.02354,-0.00659252,0.0,0 STARLINK-3115,1 49447U 21104AR  22033.91667824 -.00659252  00000-0 -23540-1 0  9995,2 49447  53.2176  95.1006 0001703  36.3657  46.1252 15.30771888  3669,6851.645,94.07,474.677,472.343,0.0
49447.0,STARLINK-3115,PAYLOAD,2022-02-03 06:00:00,15.30213341,0.0001912,53.2174,93.5541,41.0572,79.1484,-0.019291,-0.00532909,0.0,0 STARLINK-3115,1 49447U 21104AR  22034.25001157 -.00532909  00000-0 -19291-1 0  9991,2 49447  53.2174  93.5541 0001912  41.0572  79.1484 15.30213341 14079,6853.312,94.105,476.48800000000006,473.867,0.0
49447.0,STARLINK-3115,PAYLOAD,2022-02-03 14:00:01,15.29835339,0.0001947,53.2175,92.0092,35.4947,121.7641,-0.024009,-0.00653514,0.0,0 STARLINK-3115,1 49447U 21104AR  22034.58334491 -.00653514  00000-0 -24009-1 0  9996,2 49447  53.2175  92.0092 0001947  35.4947 121.7641 15.29835339 14126,6854.441,94.128,477.641,474.972,0.0
49447.0,STARLINK-3115,PAYLOAD,2022-02-03 22:00:01,15.29371764,0.0001851,53.2175,90.4624,38.7002,155.1651,-0.024534,-0.00657928,0.0,0 STARLINK-3115,1 49447U 21104AR  22034.91668981 -.00657928  00000-0 -24534-1 0  9993,2 49447  53.2175  90.4624 0001851  38.7002 155.1651 15.29371764  3656,6855.826,94.156,478.96,476.422,0.0
49447.0,STARLINK-3115,PAYLOAD,2022-02-04 14:00:01,15.28436302,0.0001825,53.2174,87.3776,39.5728,225.6961,-0.025087,-0.006539,0.0,0 STARLINK-3115,1 49447U 21104AR  22035.58335648 -.00653900  00000-0 -25087-1 0  9998,2 49447  53.2174  87.3776 0001825  39.5728 225.6961 15.28436302 14279,6858.623000000001,94.214,481.74,479.237,0.0
49447.0,STARLINK-3115,PAYLOAD,2022-02-04 22:00:00,15.27972394,0.0001581,53.2175,85.8343,45.6183,254.4481,-0.025646,-0.00658617,0.0,0 STARLINK-3115,1 49447U 21104AR  22035.91667824 -.00658617  00000-0 -25646-1 0  9990,2 49447  53.2175  85.8343 0001581  45.6183 254.4481 15.27972394  3657,6860.011,94.243,482.961,480.792,0.0
49447.0,STARLINK-3115,PAYLOAD,2022-02-05 14:00:01,15.26939129,0.0001743,53.2175,82.7574,41.9431,326.2129,-0.020589,-0.0051539,0.0,0 STARLINK-3115,1 49447U 21104AR  22036.58334491 -.00515390  00000-0 -20589-1 0  9996,2 49447  53.2175  82.7574 0001743  41.9431 326.2129 15.26939129 14426,6863.106,94.306,486.167,483.775,0.0
49447.0,STARLINK-3115,PAYLOAD,2022-02-05 22:00:01,15.26571963,0.0001665,53.2175,81.2159,36.8897,4.46,-0.02673,-0.0065776,0.0,0 STARLINK-3115,1 49447U 21104AR  22036.91668981 -.00657760  00000-0 -26730-1 0  9999,2 49447  53.2175  81.2159 0001665  36.8897   4.4600 15.26571963 14473,6864.206,94.329,487.214,484.92800000000005,0.0
